{
  "type": "FeatureCollection",
  "features": [
    {
      "type": "Feature",
      "properties": {
        "norad_id": 26766,
        "name": "INTELSAT 10 (IS-10)",
        "group": "intelsat",
        "lat": 5.694778410714666,
        "lon": 102.11483307490657,
        "alt_km": 36156.46542451966,
        "timestamp": "2025-12-11T15:53:39.209666+00:00",
        "meta_object_name": "INTELSAT 10 (IS-10)",
        "meta_object_id": "2001-019A",
        "meta_epoch": "2025-12-10T14:14:44.567232",
        "meta_mean_motion": 0.99078928,
        "meta_eccentricity": 0.00078121,
        "meta_inclination": 8.625,
        "meta_ra_of_asc_node": 61.1789,
        "meta_arg_of_pericenter": 223.6466,
        "meta_mean_anomaly": 156.4185,
        "meta_ephemeris_type": 0,
        "meta_classification_type": "U",
        "meta_norad_cat_id": 26766,
        "meta_element_set_no": 999,
        "meta_rev_at_epoch": 4371,
        "meta_bstar": 0,
        "meta_mean_motion_dot": -2.88e-06,
        "meta_mean_motion_ddot": 0,
        "tle_line1": "1 26766U 01019A   25344.59357138 -.00000288  00000+0  00000+0 0  9994",
        "tle_line2": "2 26766   8.6250  61.1789 0007812 223.6466 156.4185  0.99078928 43716"
      },
      "geometry": {
        "type": "Point",
        "coordinates": [
          102.11483307490657,
          5.694778410714666
        ]
      }
    },
    {
      "type": "Feature",
      "properties": {
        "norad_id": 26900,
        "name": "INTELSAT 902 (IS-902)",
        "group": "intelsat",
        "lat": -1.4525063768294302,
        "lon": -91.24200656984243,
        "alt_km": 35770.545447105294,
        "timestamp": "2025-12-11T15:53:39.209690+00:00",
        "meta_object_name": "INTELSAT 902 (IS-902)",
        "meta_object_id": "2001-039A",
        "meta_epoch": "2025-12-01T16:59:59.311968",
        "meta_mean_motion": 1.00270327,
        "meta_eccentricity": 0.00043097,
        "meta_inclination": 5.6187,
        "meta_ra_of_asc_node": 74.2002,
        "meta_arg_of_pericenter": 175.119,
        "meta_mean_anomaly": 26.3816,
        "meta_ephemeris_type": 0,
        "meta_classification_type": "U",
        "meta_norad_cat_id": 26900,
        "meta_element_set_no": 999,
        "meta_rev_at_epoch": 8871,
        "meta_bstar": 0,
        "meta_mean_motion_dot": -2.63e-06,
        "meta_mean_motion_ddot": 0,
        "tle_line1": "1 26900U 01039A   25335.70832537 -.00000263  00000+0  00000+0 0  9993",
        "tle_line2": "2 26900   5.6187  74.2002 0004309 175.1190  26.3816  1.00270327 88713"
      },
      "geometry": {
        "type": "Point",
        "coordinates": [
          -91.24200656984243,
          -1.4525063768294302
        ]
      }
    },
    {
      "type": "Feature",
      "properties": {
        "norad_id": 27380,
        "name": "INTELSAT 904 (IS-904)",
        "group": "intelsat",
        "lat": -3.8110458047737565,
        "lon": -72.64721909574699,
        "alt_km": 35779.896095639524,
        "timestamp": "2025-12-11T15:53:39.209707+00:00",
        "meta_object_name": "INTELSAT 904 (IS-904)",
        "meta_object_id": "2002-007A",
        "meta_epoch": "2025-12-11T02:13:33.121344",
        "meta_mean_motion": 1.00272878,
        "meta_eccentricity": 0.00015327,
        "meta_inclination": 6.451,
        "meta_ra_of_asc_node": 71.4509,
        "meta_arg_of_pericenter": 222.2761,
        "meta_mean_anomaly": 148.2085,
        "meta_ephemeris_type": 0,
        "meta_classification_type": "U",
        "meta_norad_cat_id": 27380,
        "meta_element_set_no": 999,
        "meta_rev_at_epoch": 4988,
        "meta_bstar": 0,
        "meta_mean_motion_dot": -2.21e-06,
        "meta_mean_motion_ddot": 0,
        "tle_line1": "1 27380U 02007A   25345.09274446 -.00000221  00000+0  00000+0 0  9998",
        "tle_line2": "2 27380   6.4510  71.4509 0001532 222.2761 148.2085  1.00272878 49889"
      },
      "geometry": {
        "type": "Point",
        "coordinates": [
          -72.64721909574699,
          -3.8110458047737565
        ]
      }
    },
    {
      "type": "Feature",
      "properties": {
        "norad_id": 27426,
        "name": "DIRECTV 5 (TEMPO 1)",
        "group": "intelsat",
        "lat": 3.2964258609494057,
        "lon": -151.043210715009,
        "alt_km": 35778.77173778707,
        "timestamp": "2025-12-11T15:53:39.209720+00:00",
        "meta_object_name": "DIRECTV 5 (TEMPO 1)",
        "meta_object_id": "2002-023A",
        "meta_epoch": "2025-12-11T05:08:38.770368",
        "meta_mean_motion": 1.0027173,
        "meta_eccentricity": 0.00035247,
        "meta_inclination": 4.3986,
        "meta_ra_of_asc_node": 77.6693,
        "meta_arg_of_pericenter": 193.7723,
        "meta_mean_anomaly": 135.7724,
        "meta_ephemeris_type": 0,
        "meta_classification_type": "U",
        "meta_norad_cat_id": 27426,
        "meta_element_set_no": 999,
        "meta_rev_at_epoch": 8623,
        "meta_bstar": 0,
        "meta_mean_motion_dot": -5.1e-07,
        "meta_mean_motion_ddot": 0,
        "tle_line1": "1 27426U 02023A   25345.21433762 -.00000051  00000+0  00000+0 0  9990",
        "tle_line2": "2 27426   4.3986  77.6693 0003524 193.7723 135.7724  1.00271730 86236"
      },
      "geometry": {
        "type": "Point",
        "coordinates": [
          -151.043210715009,
          3.2964258609494057
        ]
      }
    },
    {
      "type": "Feature",
      "properties": {
        "norad_id": 27438,
        "name": "INTELSAT 905 (IS-905)",
        "group": "intelsat",
        "lat": 5.909939641979065,
        "lon": -178.08656220985623,
        "alt_km": 35783.747827288695,
        "timestamp": "2025-12-11T15:53:39.209732+00:00",
        "meta_object_name": "INTELSAT 905 (IS-905)",
        "meta_object_id": "2002-027A",
        "meta_epoch": "2025-12-10T10:38:24.492192",
        "meta_mean_motion": 1.00272307,
        "meta_eccentricity": 0.00027995,
        "meta_inclination": 6.2803,
        "meta_ra_of_asc_node": 72.0822,
        "meta_arg_of_pericenter": 193.4676,
        "meta_mean_anomaly": 196.2661,
        "meta_ephemeris_type": 0,
        "meta_classification_type": "U",
        "meta_norad_cat_id": 27438,
        "meta_element_set_no": 999,
        "meta_rev_at_epoch": 4947,
        "meta_bstar": 0,
        "meta_mean_motion_dot": 9.7e-07,
        "meta_mean_motion_ddot": 0,
        "tle_line1": "1 27438U 02027A   25344.44333903  .00000097  00000+0  00000+0 0  9996",
        "tle_line2": "2 27438   6.2803  72.0822 0002799 193.4676 196.2661  1.00272307 49476"
      },
      "geometry": {
        "type": "Point",
        "coordinates": [
          -178.08656220985623,
          5.909939641979065
        ]
      }
    },
    {
      "type": "Feature",
      "properties": {
        "norad_id": 27445,
        "name": "GALAXY 3C (G-3C)",
        "group": "intelsat",
        "lat": 1.9160571185296855,
        "lon": -135.77528925824427,
        "alt_km": 35782.93601470116,
        "timestamp": "2025-12-11T15:53:39.209744+00:00",
        "meta_object_name": "GALAXY 3C (G-3C)",
        "meta_object_id": "2002-030A",
        "meta_epoch": "2025-12-11T05:00:38.584224",
        "meta_mean_motion": 1.0027162,
        "meta_eccentricity": 0.0001123,
        "meta_inclination": 3.2606,
        "meta_ra_of_asc_node": 80.5234,
        "meta_arg_of_pericenter": 92.5456,
        "meta_mean_anomaly": 247.402,
        "meta_ephemeris_type": 0,
        "meta_classification_type": "U",
        "meta_norad_cat_id": 27445,
        "meta_element_set_no": 999,
        "meta_rev_at_epoch": 4460,
        "meta_bstar": 0,
        "meta_mean_motion_dot": -1.47e-06,
        "meta_mean_motion_ddot": 0,
        "tle_line1": "1 27445U 02030A   25345.20877991 -.00000147  00000+0  00000+0 0  9990",
        "tle_line2": "2 27445   3.2606  80.5234 0001123  92.5456 247.4020  1.00271620 44603"
      },
      "geometry": {
        "type": "Point",
        "coordinates": [
          -135.77528925824427,
          1.9160571185296855
        ]
      }
    },
    {
      "type": "Feature",
      "properties": {
        "norad_id": 27513,
        "name": "INTELSAT 906 (IS-906)",
        "group": "intelsat",
        "lat": -4.1856831889031385,
        "lon": 23.34807482315963,
        "alt_km": 35798.350388627194,
        "timestamp": "2025-12-11T15:53:39.209756+00:00",
        "meta_object_name": "INTELSAT 906 (IS-906)",
        "meta_object_id": "2002-041A",
        "meta_epoch": "2025-12-11T05:15:24.712128",
        "meta_mean_motion": 1.00271294,
        "meta_eccentricity": 0.0006154,
        "meta_inclination": 5.325,
        "meta_ra_of_asc_node": 75.2494,
        "meta_arg_of_pericenter": 191.5567,
        "meta_mean_anomaly": 316.3613,
        "meta_ephemeris_type": 0,
        "meta_classification_type": "U",
        "meta_norad_cat_id": 27513,
        "meta_element_set_no": 999,
        "meta_rev_at_epoch": 8514,
        "meta_bstar": 0,
        "meta_mean_motion_dot": 1.9e-07,
        "meta_mean_motion_ddot": 0,
        "tle_line1": "1 27513U 02041A   25345.21903602  .00000019  00000+0  00000+0 0  9995",
        "tle_line2": "2 27513   5.3250  75.2494 0006154 191.5567 316.3613  1.00271294 85143"
      },
      "geometry": {
        "type": "Point",
        "coordinates": [
          23.34807482315963,
          -4.1856831889031385
        ]
      }
    }
  ]
}